#aV2008  9  5  0  0   .00000000      96 DD+AD WGS84 FIT  NGA
## 1495 432000.00000000   900.00000000 54714  .0000000000000
+   31     2  3  4  5  6  7  8  9 10 11 12 13 14 15 16 17 18
+         19 20 21 22 23 24 25 26 27 28 29 30 31 32  0  0  0
+          0  0  0  0  0  0  0  0  0  0  0  0  0  0  0  0  0
+          0  0  0  0  0  0  0  0  0  0  0  0  0  0  0  0  0
+          0  0  0  0  0  0  0  0  0  0  0  0  0  0  0  0  0
++         0  0  0  0  0  0  0  0  0  0  0  0  0  0  0  0  0
++         0  0  0  0  0  0  0  0  0  0  0  0  0  0  0  0  0
++         0  0  0  0  0  0  0  0  0  0  0  0  0  0  0  0  0
++         0  0  0  0  0  0  0  0  0  0  0  0  0  0  0  0  0
++         0  0  0  0  0  0  0  0  0  0  0  0  0  0  0  0  0
%c cc cc ccc ccc cccc cccc cccc cccc ccccc ccccc ccccc ccccc
%c cc cc ccc ccc cccc cccc cccc cccc ccccc ccccc ccccc ccccc
%f  0.0000000  0.000000000  0.00000000000  0.000000000000000
%f  0.0000000  0.000000000  0.00000000000  0.000000000000000
%i    0    0    0    0      0      0      0      0         0
%i    0    0    0    0      0      0      0      0         0
/*      NGA, ST. LOUIS,MO.                                  
/*   EPHEMERIS COMPUTED FROM  3 DAYS OF DATA                
/* CCCCCCCCCCCCCCCCCCCCCCCCCCCCCCCCCCCCCCCCCCCCCCCCCCCCCCCCC
/* CCCCCCCCCCCCCCCCCCCCCCCCCCCCCCCCCCCCCCCCCCCCCCCCCCCCCCCCC
*  2008  9  5 11  0   .00000000                                                 
P  2  13656.581193  18594.566803 -13617.811475    189.686802                    
V  2    914.625250  17098.436735  24147.875165      -.028102                    
P  3 -23272.562298 -11188.950514  -7243.023114    279.302999                    
V  3   9330.839336  -1176.781896 -28924.705435       .050962                    
P  4   6485.911206  25403.220181  -2819.362184   -162.506526                    
V  4  -3049.391667   4085.558447  31295.267472      -.108035                    
P  5  21081.493884 -14295.490277   6990.786328    133.558699                    
V  5  -4117.316268   9000.595269  29727.012904     -2.228303                    
P  6 -19997.156836 -14082.860373 -10161.854301    167.301891                    
V  6  13605.687428    799.972556 -27374.162969      -.007044                    
P  7  -8678.389284  18415.162381 -17038.118090     14.908829                    
V  7  -5599.794447 -20943.727732 -19910.325486       .029337                    
P  8  -1308.870720  25410.919142  -6739.489556   -168.694840                    
V  8  -3393.525859  -8187.417481 -31045.292757      -.016052                    
P  9  14584.177874  -1852.773663  21484.952403     13.429281                    
V  9   6091.495134  28141.740197  -1536.108398       .018130                    
P 10  15054.839001   6698.821608 -21031.909266     -4.531867                    
V 10 -20117.757912  16978.934281  -8729.533016      -.002943                    
P 11 -15838.407531   5128.726770  20538.388674     20.410529                    
V 11  -9830.681396 -24910.294828  -1006.527780      -.006691                    
P 12  22349.884829  -8180.816535  11760.128090   -352.137876                    
V 12  -9847.223978  11350.959471  26882.743545       .014134                    
P 13 -13774.556160   8995.983137 -20967.120127    270.097469                    
V 13 -24039.962373 -10594.666495  11315.074224       .012586                    
P 14  -5941.351718 -16521.382423  20074.006193   -223.548597                    
V 14  23662.434951   8530.646438  13988.393073       .046519                    
P 15  25596.499775   6258.577371   3424.124791   -172.081047                    
V 15   3148.691448   4117.565359 -31280.236218      -.065065                    
P 16  -9896.562236 -11371.151411 -21809.052056    108.579442                    
V 16  21589.919458 -17541.982612   -444.972671      -.019807                    
P 17   5703.318304  16902.747215  19773.348268     38.891557                    
V 17 -23775.910252  -7695.731631  13296.973418       .000480                    
P 18  16115.141271 -19573.847453   7442.521734   -137.241705                    
V 18   9376.771127  -3138.253947 -29712.075297       .041210                    
P 19 -25196.256387  -7268.097162   4947.383942     35.255184                    
V 19  -4563.172216  -4907.337558 -30727.262250       .002311                    
P 20 -22328.351679  11416.393462   8588.491607    105.498249                    
V 20   6286.662211  -9644.586496  28818.157595      -.010623                    
P 21   6054.081355 -22043.349202 -12777.630868     51.800214                    
V 21   5982.885273  16126.128623 -25198.427969      -.014281                    
P 22   4774.922882 -19659.298927  17339.064969    211.093822                    
V 22  18398.846892 -11824.541294 -18710.175673       .000260                    
P 23 -22382.357775   2335.765857 -14378.130884    371.938921                    
V 23 -16375.371428  -7719.961469  24076.416831       .015262                    
P 24  13482.274585  -9838.208665 -20557.006168    122.835482                    
V 24   4225.512577  26111.933659  -9378.451931       .031913                    
P 25 -11177.919220  12302.709055 -20402.250123   -211.153567                    
V 25  -8078.219038 -25414.594888 -10542.793081       .535719                    
P 26  24401.578034  11159.893796  -1531.705167    320.990574                    
V 26  -1702.032635    707.453940 -32037.597313       .057388                    
P 27  -5214.142414  20970.703693 -14686.277036    215.369862                    
V 27  -6791.707067 -18801.815006 -23491.963006       .026850                    
P 28  -5914.892543  19772.484827  16916.811096    -22.294056                    
V 28 -17422.008097  11625.728201 -20477.661824      -.002081                    
P 29  16829.050928  -7733.459933 -18911.827588    -38.337877                    
V 29  22150.372761  10011.903522  15556.508358       .008525                    
P 30  18579.259383 -18853.593120  -1801.628790     95.013358                    
V 30   3570.276821   1113.266156  31452.725668       .020227                    
P 31  -8462.212627 -24431.369491  -5621.145733    -25.103381                    
V 31   1197.555616  -7763.227754  30927.928894      -.000838                    
P 32 -22024.591592   3162.747321  14796.033647    315.632199                    
V 32  13628.914361 -12063.814364  23739.813240       .009035                    
EOF
